[{"OBJECT_NAME":"STARLINK-2270","OBJECT_ID":"2021-024Z","EPOCH":"2026-03-10T00:00:02.999808","MEAN_MOTION":15.15503403,"ECCENTRICITY":0.00016675,"INCLINATION":53.0914,"RA_OF_ASC_NODE":240.2006,"ARG_OF_PERICENTER":79.2002,"MEAN_ANOMALY":45.1048,"EPHEMERIS_TYPE":0,"CLASSIFICATION_TYPE":"U","NORAD_CAT_ID":48000,"ELEMENT_SET_NO":999,"REV_AT_EPOCH":568,"BSTAR":0.0047847248,"MEAN_MOTION_DOT":0.00092576,"MEAN_MOTION_DDOT":0},{"OBJECT_NAME":"CONNECTA IOT-13","OBJECT_ID":"2026-004AP","EPOCH":"2026-03-09T21:30:41.110560","MEAN_MOTION":15.17636182,"ECCENTRICITY":0.00083464,"INCLINATION":97.4574,"RA_OF_ASC_NODE":69.4172,"ARG_OF_PERICENTER":345.5859,"MEAN_ANOMALY":14.5136,"EPHEMERIS_TYPE":0,"CLASSIFICATION_TYPE":"U","NORAD_CAT_ID":67400,"ELEMENT_SET_NO":999,"REV_AT_EPOCH":869,"BSTAR":0.00022273325,"MEAN_MOTION_DOT":4.418e-5,"MEAN_MOTION_DDOT":0}]
